H1 CPF  1  HTS 2005 12 31 12  8651 lageos1          NONE
H2  7603901 1155     8820 2005 12 31  0  0  0 2006 01 08  0  0  0   300 1 1  0 0 0
H5  0.2510 
H9 
10 0 53735  66600.00000  0    7139502.609   -9542915.342    2817562.761
20 0     -1536.446815     -2718.988393     -5204.026821
10 0 53735  66900.00000  0    6595838.303  -10254000.315    1233945.824
20 0     -2076.919917     -2010.307697     -5336.184792
10 0 53735  67200.00000  0    5900615.215  -10743196.775    -373727.419
20 0     -2544.821958     -1242.647235     -5364.205759
10 0 53735  67500.00000  0    5077303.848  -10995505.882   -1974143.245
20 0     -2929.219899      -434.195222     -5287.951826
10 0 53735  67800.00000  0    4152287.601  -11001559.921   -3536256.076
20 0     -3221.663724       395.777062     -5109.340001
10 0 53735  68100.00001  0    3154089.130  -10757873.200   -5029895.108
20 0     -3416.364907      1227.410966     -4832.269494
10 0 53735  68400.00000  0    2112555.018  -10266943.024   -6426343.029
20 0     -3510.295748      2040.761697     -4462.509290
10 0 53735  68700.00000  0    1058022.464   -9537201.299   -7698875.753
20 0     -3503.210278      2816.290649     -4007.551665
10 0 53735  69000.00000  0      20491.057   -8582821.386   -8823253.891
20 0     -3397.590186      3535.336143     -3476.437958
10 0 53735  69300.00000  0    -971178.649   -7423388.303   -9778158.574
20 0     -3198.521363      4180.552114     -2879.562885
10 0 53735  69600.00000  0   -1890019.988   -6083443.196  -10545566.091
20 0     -2913.508065      4736.306435     -2228.463211
10 0 53735  69900.00000  0   -2711650.900   -4591915.174  -11111057.430
20 0     -2552.232580      5189.032614     -1535.595870
10 0 53735  70200.00000  0   -3414885.408   -2981455.215  -11464060.209
20 0     -2126.268679      5527.530336      -814.109756
10 0 53735  70500.00000  0   -3982253.238   -1287687.976  -11598021.612
20 0     -1648.757128      5743.211798       -77.614416
10 0 53735  70800.00001  0   -4400417.411     451601.894  -11510511.781
20 0     -1134.051308      5830.291768       660.051953
10 0 53735  71100.00000  0   -4660481.996    2197331.845  -11203257.703
20 0      -597.340595      5785.920015      1385.053636
10 0 53735  71400.00000  0   -4758184.457    3910014.458  -10682108.023
20 0       -54.258786      5610.254959      2083.786615
10 0 53735  71700.00000  0   -4693969.169    5550663.609   -9956929.486
20 0       479.515401      5306.477360      2743.105062
10 0 53735  72000.00000  0   -4472940.768    7081695.582   -9041435.959
20 0       988.658657      4880.742744      3350.544041
10 0 53735  72300.00000  0   -4104698.210    8467806.573   -7952951.417
20 0      1458.596866      4342.071436      3894.536748
10 0 53735  72600.00000  0   -3603052.635    9676807.764   -6712108.855
20 0      1875.884502      3702.175597      4364.623934
10 0 53735  72900.00000  0   -2985634.613   10680399.079   -5342487.932
20 0      2228.561329      2975.223574      4751.652441
10 0 53735  73200.00000  0   -2273398.864   11454863.014   -3870195.137
20 0      2506.477721      2177.543069      5047.959065
10 0 53735  73500.00001  0   -1490037.203   11981660.604   -2323391.565
20 0      2701.579674      1327.266214      5247.535252
10 0 53735  73800.00000  0    -661313.144   12247912.810    -731774.767
20 0      2808.144612       443.921661      5346.167627
10 0 53735  74100.00000  0     185665.793   12246752.478     873977.262
20 0      2822.959525      -452.018873      5341.549063
10 0 53735  74400.00000  0    1023219.613   11977534.655    2462790.367
20 0      2745.434031     -1339.629641      5233.355265
10 0 53735  74700.00000  0    1823890.799   11445896.353    4003795.776
20 0      2577.642583     -2198.043236      5023.282668
10 0 53735  75000.00000  0    2561240.810   10663660.819    5466936.825
20 0      2324.292224     -3006.972533      4715.044686
10 0 53735  75300.00000  0    3210625.547    9648585.598    6823568.070
20 0      1992.614569     -3747.227596      4314.324481
10 0 53735  75600.00000  0    3749927.156    8423958.177    8047033.603
20 0      1592.183110     -4401.212383      3828.683574
10 0 53735  75900.00000  0    4160220.254    7018047.560    9113211.407
20 0      1134.659616     -4953.385935      3267.427083
10 0 53735  76200.00001  0    4426352.209    5463424.643   10001011.065
20 0       633.476041     -5390.673601      2641.428058
10 0 53735  76500.00000  0    4537419.393    3796168.335   10692813.101
20 0       103.460710     -5702.815530      1962.914731
10 0 53735  76800.00000  0    4487124.238    2054977.907   11174839.510
20 0      -439.580585     -5882.641750      1245.225427
10 0 53735  77100.00000  0    4274001.365     280214.911   11437446.596
20 0      -979.316413     -5926.265363       502.536647
10 0 53735  77400.00000  0    3901504.812   -1487099.787   11475332.991
20 0     -1499.361192     -5833.187874      -250.429552
10 0 53735  77700.00000  0    3377952.893   -3206306.941   11287657.489
20 0     -1983.752387     -5606.313194      -998.712412
10 0 53735  78000.00000  0    2716330.263   -4838120.185   10878063.712
20 0     -2417.419087     -5251.869208     -1727.426848
10 0 53735  78300.00000  0    1933953.068   -6345600.054   10254610.075
20 0     -2786.627546     -4779.238410     -2422.077888
10 0 53735  78600.00000  0    1052005.363   -7695064.068    9429606.449
20 0     -3079.389796     -4200.702068     -3068.867563
10 0 53735  78900.00001  0      94960.145   -8856907.994    8419360.826
20 0     -3285.822577     -3531.105251     -3654.986711
10 0 53735  79200.00000  0    -910098.410   -9806315.911    7243841.586
20 0     -3398.445353     -2787.452395     -4168.884655
10 0 53735  79500.00000  0   -1934231.762  -10523839.975    5926263.018
20 0     -3412.407856     -1988.445049     -4600.510066
10 0 53735  79800.00000  0   -2947460.549  -10995834.510    4492603.718
20 0     -3325.639670     -1153.975524     -4941.516589
10 0 53735  80100.00000  0   -3919610.672  -11214733.522    2971069.299
20 0     -3138.917075      -304.592121     -5185.427588
10 0 53735  80400.00000  0   -4821166.773  -11179165.636    1391512.381
20 0     -2855.845471       539.047081     -5327.755633
10 0 53735  80700.00000  0   -5624107.950  -10893905.627    -215176.130
20 0     -2482.759104      1356.714443     -5366.074121
10 0 53735  81000.00000  0   -6302701.551  -10369666.908   -1817689.958
20 0     -2028.542891      2129.130215     -5300.040384
10 0 53735  81300.00000  0   -6834232.735   -9622744.123   -3384930.167
20 0     -1504.383858      2838.441911     -5131.371489
10 0 53735  81600.00001  0   -7199650.095   -8674519.332   -4886613.843
20 0      -923.461837      3468.652369     -4863.775596
10 0 53735  81900.00000  0   -7384110.782   -7550848.845   -6293856.048
20 0      -300.590772      4005.985827     -4502.843188
10 0 53735  82200.00000  0   -7377412.135   -6281350.521   -7579713.805
20 0       348.177060      4439.184340     -4055.903741
10 0 53735  82500.00000  0   -7174300.585   -4898613.195   -8719682.675
20 0      1005.971495      4759.730165     -3531.854065
10 0 53735  82800.00000  0   -6774652.210   -3437350.687   -9692138.370
20 0      1655.537732      4961.992651     -2940.964526
10 0 53735  83100.00000  0   -6183522.775   -1933522.991  -10478717.648
20 0      2279.671459      5043.300631     -2294.668996
10 0 53735  83400.00000  0   -5411068.197    -423446.570  -11064634.412
20 0      2861.646054      5003.943161     -1605.343702
10 0 53735  83700.00000  0   -4472339.114    1057085.341  -11438928.366
20 0      3385.623364      4847.102923      -886.079409
10 0 53735  84000.00000  0   -3386955.600    2473653.000  -11594644.756
20 0      3837.040823      4578.727551      -150.450361
10 0 53735  84300.00001  0   -2178670.081    3794013.223  -11528944.641
20 0      4202.968803      4207.344517       587.717592
10 0 53735  84600.00000  0    -874828.170    4988839.137  -11243145.656
20 0      4472.432833      3743.825176      1314.578178
10 0 53735  84900.00000  0     494261.244    6032382.209  -10742693.672
20 0      4636.695617      3201.103311      2016.494171
10 0 53735  85200.00000  0    1896033.876    6903043.642  -10037065.968
20 0      4689.493932      2593.853354      2680.264276
10 0 53735  85500.00000  0    3296441.595    7583843.852   -9139606.867
20 0      4627.225359      1938.133496      3293.346323
10 0 53735  85800.00000  0    4660771.837    8062780.293   -8067297.150
20 0      4449.079854      1250.999230      3844.075207
10 0 53735  86100.00000  0    5954497.612    8333065.661   -6840459.150
20 0      4157.111281       550.093439      4321.873302
10 0 53736      0.00000  0    7144139.393    8393240.472   -5482400.223
20 0      3756.244463      -146.780019      4717.450348
10 0 53736    300.00000  0    8198118.980    8247156.216   -4018998.292
20 0      3254.214064      -822.091220      5022.988951
99